NORAD_CAT_ID,OBJECT_NAME,OBJECT_TYPE,EPOCH,MEAN_MOTION,ECCENTRICITY,INCLINATION,RA_OF_ASC_NODE,ARG_OF_PERICENTER,MEAN_ANOMALY,BSTAR,MEAN_MOTION_DOT,MEAN_MOTION_DDOT,TLE_LINE0,TLE_LINE1,TLE_LINE2,SEMIMAJOR_AXIS,PERIOD,APOGEE,PERIGEE,DECAYED
53402.0,STARLINK-4499,PAYLOAD,2023-04-07 16:04:02,15.0885083,0.0001769,53.2168,234.1592,92.48,267.6395,0.00029996,4.49e-05,0.0,0 STARLINK-4499,1 53402U 22097Q   23097.66947121  .00004490  00000-0  29996-3 0  9996,2 53402  53.2168 234.1592 0001769  92.4800 267.6395 15.08850830 36941,6917.847,95.437,540.936,538.489,0.0
53402.0,STARLINK-4499,PAYLOAD,2023-04-08 12:44:03,15.08832975,0.0001537,53.2176,230.2952,94.5398,265.577,-0.00014412,-2.58e-05,0.0,0 STARLINK-4499,1 53402U 22097Q   23098.53059632 -.00002580  00000-0 -14412-3 0  9991,2 53402  53.2176 230.2952 0001537  94.5398 265.5770 15.08832975 37074,6917.902,95.438,540.83,538.704,0.0
53402.0,STARLINK-4499,PAYLOAD,2023-04-09 09:24:04,15.08838401,0.0001382,53.2182,226.4293,93.4283,266.6867,4.4444e-05,4.19e-06,0.0,0 STARLINK-4499,1 53402U 22097Q   23099.39171856  .00000419  00000-0  44444-4 0  9995,2 53402  53.2182 226.4293 0001382  93.4283 266.6867 15.08838401 37692,6917.885,95.438,540.706,538.794,0.0
53402.0,STARLINK-4499,PAYLOAD,2023-04-09 14:10:13,15.08839182,0.0001708,53.2191,225.5381,99.7067,260.4118,0.00017464,2.492e-05,0.0,0 STARLINK-4499,1 53402U 22097Q   23099.59043964  .00002492  00000-0  17464-3 0  9999,2 53402  53.2191 225.5381 0001708  99.7067 260.4118 15.08839182 37239,6917.883,95.438,540.929,538.566,0.0
53402.0,STARLINK-4499,PAYLOAD,2023-04-10 09:14:51,15.0884178,0.0001319,53.2177,221.9695,90.5362,269.5781,0.0002365,3.478e-05,0.0,0 STARLINK-4499,1 53402U 22097Q   23100.38531915  .00003478  00000-0  23650-3 0  9996,2 53402  53.2177 221.9695 0001319  90.5362 269.5781 15.08841780 37846,6917.875,95.437,540.652,538.827,0.0
53402.0,STARLINK-4499,PAYLOAD,2023-04-10 17:11:46,15.08855025,0.0001505,53.2178,220.4821,86.445,273.6715,0.0003581,5.418e-05,0.0,0 STARLINK-4499,1 53402U 22097Q   23100.71651265  .00005418  00000-0  35810-3 0  9991,2 53402  53.2178 220.4821 0001505  86.4450 273.6715 15.08855025 37896,6917.834,95.437,540.741,538.658,0.0
53402.0,STARLINK-4499,PAYLOAD,2023-04-11 01:08:42,15.08847114,0.0001693,53.2164,218.995,83.3951,276.7233,0.00017805,2.547e-05,0.0,0 STARLINK-4499,1 53402U 22097Q   23101.04771540  .00002547  00000-0  17805-3 0  9991,2 53402  53.2164 218.9950 0001693  83.3951 276.7233 15.08847114 37457,6917.859,95.437,540.895,538.552,0.0
53402.0,STARLINK-4499,PAYLOAD,2023-04-11 12:16:24,15.08848457,0.0001848,53.2181,216.9152,83.6453,276.4749,0.00015545,2.187e-05,0.0,0 STARLINK-4499,1 53402U 22097Q   23101.51139365  .00002187  00000-0  15545-3 0  9995,2 53402  53.2181 216.9152 0001848  83.6453 276.4749 15.08848457 38013,6917.855,95.437,540.998,538.441,0.0
53402.0,STARLINK-4499,PAYLOAD,2023-04-12 13:42:34,15.08835545,9.13e-05,53.2195,212.1582,83.8441,276.2655,-7.7307e-05,-1.518e-05,0.0,0 STARLINK-4499,1 53402U 22097Q   23102.57123573 -.00001518  00000-0 -77307-4 0  9990,2 53402  53.2195 212.1582 0000913  83.8441 276.2655 15.08835545 37684,6917.894,95.438,540.391,539.127,0.0
53402.0,STARLINK-4499,PAYLOAD,2023-04-12 18:28:43,15.08852676,0.0001401,53.2176,211.2641,96.9223,263.1928,0.00015266,2.143e-05,0.0,0 STARLINK-4499,1 53402U 22097Q   23102.76994740  .00002143  00000-0  15266-3 0  9991,2 53402  53.2176 211.2641 0001401  96.9223 263.1928 15.08852676 37711,6917.842,95.437,540.676,538.737,0.0
53402.0,STARLINK-4499,PAYLOAD,2023-04-13 00:50:16,15.08838327,0.000191,53.2205,210.081,52.3739,307.7426,1.2563e-05,-8.8e-07,0.0,0 STARLINK-4499,1 53402U 22097Q   23103.03491709 -.00000088  00000-0  12563-4 0  9994,2 53402  53.2205 210.0810 0001910  52.3739 307.7426 15.08838327 38246,6917.886,95.438,541.072,538.429,0.0
53402.0,STARLINK-4499,PAYLOAD,2023-04-13 18:19:30,15.08853273,0.0001514,53.2156,206.8052,78.5702,281.546,0.00027883,4.154e-05,0.0,0 STARLINK-4499,1 53402U 22097Q   23103.76354891  .00004154  00000-0  27883-3 0  9991,2 53402  53.2156 206.8052 0001514  78.5702 281.5460 15.08853273 37863,6917.84,95.437,540.752,538.657,0.0
53402.0,STARLINK-4499,PAYLOAD,2023-04-14 11:48:46,15.08831838,0.0001179,53.2153,203.5345,82.3861,277.7265,9.6954e-05,1.255e-05,0.0,0 STARLINK-4499,1 53402U 22097Q   23104.49220218  .00001255  00000-0  96954-4 0  9992,2 53402  53.2153 203.5345 0001179  82.3861 277.7265 15.08831838 38465,6917.905,95.438,540.586,538.955,0.0
53402.0,STARLINK-4499,PAYLOAD,2023-04-14 22:56:27,15.08844841,0.0001361,53.2173,201.4529,93.6922,266.4226,0.00010857,1.441e-05,0.0,0 STARLINK-4499,1 53402U 22097Q   23104.95587597  .00001441  00000-0  10857-3 0  9993,2 53402  53.2173 201.4529 0001361  93.6922 266.4226 15.08844841 38048,6917.866,95.437,540.672,538.789,0.0
53402.0,STARLINK-4499,PAYLOAD,2023-04-15 13:14:55,15.08853579,0.0001484,53.2182,198.7765,101.4082,258.7077,0.00028794,4.299e-05,0.0,0 STARLINK-4499,1 53402U 22097Q   23105.55203284  .00004299  00000-0  28794-3 0  9991,2 53402  53.2182 198.7765 0001484 101.4082 258.7077 15.08853579 38629,6917.839,95.437,540.73,538.677,0.0
53402.0,STARLINK-4499,PAYLOAD,2023-04-16 05:08:47,15.08844467,0.0001486,53.2176,195.8046,109.4515,250.6638,0.00010532,1.389e-05,0.0,0 STARLINK-4499,1 53402U 22097Q   23106.21443487  .00001389  00000-0  10532-3 0  9994,2 53402  53.2176 195.8046 0001486 109.4515 250.6638 15.08844467 38230,6917.867,95.437,540.76,538.704,0.0
53402.0,STARLINK-4499,PAYLOAD,2023-04-16 11:30:19,15.08839692,0.0001653,53.2185,194.6139,115.0414,245.075,-2.95e-06,-3.35e-06,0.0,0 STARLINK-4499,1 53402U 22097Q   23106.47939666 -.00000335  00000-0 -29500-5 0  9990,2 53402  53.2185 194.6139 0001653 115.0414 245.0750 15.08839692 38762,6917.881,95.438,540.89,538.603,0.0
53402.0,STARLINK-4499,PAYLOAD,2023-04-17 04:59:34,15.08842081,0.0001991,53.2188,191.3466,100.6464,259.4752,-9.8671e-05,-1.858e-05,0.0,0 STARLINK-4499,1 53402U 22097Q   23107.20803700 -.00001858  00000-0 -98671-4 0  9996,2 53402  53.2188 191.3466 0001991 100.6464 259.4752 15.08842081 38387,6917.874,95.437,541.116,538.362,0.0
53402.0,STARLINK-4499,PAYLOAD,2023-04-17 12:56:30,15.08834988,0.0001435,53.2182,189.8555,98.9913,261.1241,-7.7728e-06,-4.12e-06,0.0,0 STARLINK-4499,1 53402U 22097Q   23107.53924165 -.00000412  00000-0 -77728-5 0  9997,2 53402  53.2182 189.8555 0001435  98.9913 261.1241 15.08834988 38439,6917.896,95.438,540.753,538.768,0.0
53402.0,STARLINK-4499,PAYLOAD,2023-04-17 14:31:53,15.08835608,0.0001491,53.2162,189.5571,90.0685,270.0478,2.4798e-05,1.07e-06,0.0,0 STARLINK-4499,1 53402U 22097Q   23107.60548220  .00000107  00000-0  24798-4 0  9996,2 53402  53.2162 189.5571 0001491  90.0685 270.0478 15.08835608 38939,6917.894,95.438,540.79,538.727,0.0
53402.0,STARLINK-4499,PAYLOAD,2023-04-18 09:36:31,15.0884207,0.0001265,53.218,185.99,98.0132,262.1004,0.00030375,4.55e-05,0.0,0 STARLINK-4499,1 53402U 22097Q   23108.40036390  .00004550  00000-0  30375-3 0  9998,2 53402  53.2180 185.9900 0001265  98.0132 262.1004 15.08842070 39051,6917.874,95.437,540.614,538.864,0.0
53402.0,STARLINK-4499,PAYLOAD,2023-04-18 14:22:40,15.08848564,0.0001325,53.2153,185.0957,92.337,267.7774,0.00044661,6.829e-05,0.0,0 STARLINK-4499,1 53402U 22097Q   23108.59908210  .00006829  00000-0  44661-3 0  9991,2 53402  53.2153 185.0957 0001325  92.3370 267.7774 15.08848564 38599,6917.854,95.437,540.636,538.803,0.0
53402.0,STARLINK-4499,PAYLOAD,2023-04-19 04:41:09,15.08839385,0.0001417,53.2175,182.4222,80.5922,279.5231,0.00023905,3.519e-05,0.0,0 STARLINK-4499,1 53402U 22097Q   23109.19524852  .00003519  00000-0  23905-3 0  9995,2 53402  53.2175 182.4222 0001417  80.5922 279.5231 15.08839385 38683,6917.882,95.438,540.728,538.767,0.0
53402.0,STARLINK-4499,PAYLOAD,2023-04-19 09:27:19,15.08837632,0.0001369,53.2176,181.5299,75.7423,284.3721,0.00019986,2.894e-05,0.0,0 STARLINK-4499,1 53402U 22097Q   23109.39396995  .00002894  00000-0  19986-3 0  9991,2 53402  53.2176 181.5299 0001369  75.7423 284.3721 15.08837632 39206,6917.888,95.438,540.7,538.806,0.0
53402.0,STARLINK-4499,PAYLOAD,2023-04-19 11:02:42,15.0883771,0.0001211,53.2154,181.2301,88.3284,271.7846,0.00021415,3.122e-05,0.0,0 STARLINK-4499,1 53402U 22097Q   23109.46020878  .00003122  00000-0  21415-3 0  9998,2 53402  53.2154 181.2301 0001211  88.3284 271.7846 15.08837710 39210,6917.887,95.438,540.59,538.915,0.0
53402.0,STARLINK-4499,PAYLOAD,2023-04-20 09:18:05,15.08847169,0.0001388,53.2157,177.0683,78.9577,281.1571,0.00044319,6.774e-05,0.0,0 STARLINK-4499,1 53402U 22097Q   23110.38756891  .00006774  00000-0  44319-3 0  9996,2 53402  53.2157 177.0683 0001388  78.9577 281.1571 15.08847169 39358,6917.858,95.437,540.684,538.763,0.0
53402.0,STARLINK-4499,PAYLOAD,2023-04-20 14:04:15,15.08853341,0.0001418,53.2159,176.1758,81.0293,279.086,0.00054105,8.336e-05,0.0,0 STARLINK-4499,1 53402U 22097Q   23110.58628648  .00008336  00000-0  54105-3 0  9996,2 53402  53.2159 176.1758 0001418  81.0293 279.0860 15.08853341 38891,6917.84,95.437,540.686,538.724,0.0
53402.0,STARLINK-4499,PAYLOAD,2023-04-21 04:22:43,15.0883803,0.0001312,53.2155,173.4993,84.9801,275.1341,3.3692e-05,2.48e-06,0.0,0 STARLINK-4499,1 53402U 22097Q   23111.18245054  .00000248  00000-0  33692-4 0  9992,2 53402  53.2155 173.4993 0001312  84.9801 275.1341 15.08838030 38987,6917.886,95.438,540.659,538.844,0.0
53402.0,STARLINK-4499,PAYLOAD,2023-04-21 15:30:25,15.08842791,0.000132,53.2157,171.4178,84.2866,275.8276,0.00024682,3.643e-05,0.0,0 STARLINK-4499,1 53402U 22097Q   23111.64613070  .00003643  00000-0  24682-3 0  9990,2 53402  53.2157 171.4178 0001320  84.2866 275.8276 15.08842791 39541,6917.872,95.437,540.65,538.824,0.0
53402.0,STARLINK-4499,PAYLOAD,2023-04-22 02:38:07,15.08844305,0.0001344,53.2157,169.3365,87.3363,272.7783,0.00034119,5.147e-05,0.0,0 STARLINK-4499,1 53402U 22097Q   23112.10981116  .00005147  00000-0  34119-3 0  9998,2 53402  53.2157 169.3365 0001344  87.3363 272.7783 15.08844305 39617,6917.867,95.437,540.662,538.802,0.0
